AEROCUBE 6A             
1 40045U 14033AM  24295.48388127  .00014986  00000+0  16605-2 0  9994
2 40045  97.6777 104.2871 0047221 225.6383 134.0960 14.86570642556536
AEROCUBE 6B             
1 40046U 14033AN  24295.91375910  .00017091  00000+0  18494-2 0  9997
2 40046  97.6754 103.5278 0045962 218.9710 140.8192 14.87544736556666
CANX-4                  
1 40055U 14034C   24295.82008081  .00003289  00000+0  45298-3 0  9997
2 40055  98.3835 135.8673 0013910 142.1916 218.0274 14.78918054555267
CANX-5                  
1 40056U 14034D   24295.82440404  .00003277  00000+0  45124-3 0  9992
2 40056  98.3839 135.8817 0013879 142.3131 217.9053 14.78928721546071
UKUBE-1                 
1 40074U 14037F   24294.79396875  .00033473  00000+0  28477-2 0  9994
2 40074  98.3510 232.7761 0006332  46.4103 313.7642 14.97720326557557
BRITE-PL2 (HEWELIUSZ)   
1 40119U 14049B   24295.24534501  .00005005  00000+0  52038-3 0  9999
2 40119  97.8867  34.4718 0014340 312.0670  47.9327 14.90266837551346
AEROCUBE 5C             
1 40965U 15058B   24295.51777247  .00010503  00000+0  90297-3 0  9993
2 40965  64.7700 333.2884 0190717 270.4115  87.5143 14.84788811275783
AEROCUBE 7              
1 40966U 15058C   24295.22090113  .00011406  00000+0  93666-3 0  9998
2 40966  64.7668 326.6782 0184739 270.1562  87.8381 14.87132214275836
FOX-1A (AO-85)          
1 40967U 15058D   24295.22461167  .00010102  00000+0  88803-3 0  9999
2 40967  64.7783 348.5266 0189040 266.2446  91.7031 14.84215568 23683
SINOD-D 1               
1 40968U 15058E   24295.20965960  .00012796  00000+0  10672-2 0  9997
2 40968  64.7779 340.0019 0182337 265.3023  92.7243 14.86793480 26534
SNAP-3 ALICE            
1 40970U 15058G   24295.38510150  .00032131  00000+0  18796-2 0  9996
2 40970  64.7685 288.2173 0144546 263.7551  94.7085 15.03263274 24701
LMRST-SAT               
1 40971U 15058H   24295.54200500  .00010757  00000+0  94205-3 0  9990
2 40971  64.7780 343.1067 0190408 267.5401  90.3898 14.84137593 23733
SNAP-3 EDDIE            
1 40972U 15058J   24295.96139351  .00047256  00000+0  27142-2 0  9991
2 40972  64.7658 279.5279 0144545 264.4469  94.0150 15.03758102 26895
PROPCUBE 3              
1 40973U 15058K   24295.20036199  .00011379  00000+0  95107-3 0  9999
2 40973  64.7711 330.7230 0186538 269.0742  88.8992 14.86274843 24748
BISONSAT                
1 40974U 15058L   24295.22233776  .00025400  00000+0  17331-2 0  9994
2 40974  64.7662 299.9619 0162642 267.0228  91.2265 14.95966008 24582
SNAP-3 JIMI             
1 40975U 15058M   24295.19227134  .00014679  00000+0  11290-2 0  9996
2 40975  64.7687 316.6699 0176504 268.1632  89.9258 14.90334121 23785
PROPCUBE 1 (FLORA)      
1 40976U 15058N   24295.23221135  .00009591  00000+0  87499-3 0  9999
2 40976  64.7773   0.1937 0189180 268.9126  89.0304 14.82876228 26474
SINOD-D 3               
1 40977U 15058P   24295.16864667  .00011004  00000+0  95461-3 0  9995
2 40977  64.7759 352.3553 0182447 268.1948  89.8258 14.85444283 24725
HORYU-4                 
1 41340U 16012D   24295.96552374  .00032827  00000+0  13729-2 0  9990
2 41340  31.0001 226.1574 0008388 200.1794 159.8517 15.22385320477449
RAVAN                   
1 41849U 16067B   24295.10526226  .00017524  00000+0  84337-3 0  9998
2 41849  98.0638 120.6288 0011300 322.6784  37.3663 15.18794845435064
CELTEE 1                
1 41850U 16067C   24295.45405594  .00010909  00000+0  68521-3 0  9999
2 41850  98.1082 111.7698 0001671 113.9485 246.1917 15.09459646434456
OPTICUBE 04             
1 41851U 16067D   24295.93782710  .00007116  00000+0  51192-3 0  9993
2 41851  98.0875 106.4235 0017368 356.3022   3.8072 15.04448099434280
AEROCUBE 8D             
1 41852U 16067E   24295.45458405  .00013392  00000+0  79965-3 0  9993
2 41852  98.1132 111.8967 0005177  49.2916 310.8761 15.11242535434444
AEROCUBE 8C             
1 41853U 16067F   24294.94071047  .00020068  00000+0  11950-2 0  9997
2 41853  98.0961 109.6266 0006849 341.7119  18.3862 15.11234665434350
PROMETHEUS 2-1          
1 41854U 16067G   24295.46235688  .00034022  00000+0  13563-2 0  9996
2 41854  98.0988 119.9544 0010546 346.0902  14.0042 15.25079911434922
PROMETHEUS 2-3          
1 41855U 16067H   24295.06937589  .00032272  00000+0  12917-2 0  9999
2 41855  98.0924 118.8958 0009078 357.6393   2.4798 15.24970980434867
CORVUS BC2              
1 42846U 17042X   24295.92585531  .00009638  00000+0  78528-3 0  9996
2 42846  97.3786 114.1478 0008549   8.3403 351.7962 14.99657973396423
CORVUS BC1              
1 42847U 17042Y   24295.07299727  .00006122  00000+0  49893-3 0  9990
2 42847  97.3768 113.7633 0008795 358.5529   1.5668 14.99790998396310
MIRATA                  
1 43015U 17073C   24295.21933048  .00039621  00000+0  14892-2 0  9999
2 43015  97.5720 179.1333 0144034 186.4968 173.4404 15.17804904375377
MAKERSAT 0              
1 43016U 17073D   24295.17735564  .00019952  00000+0  10219-2 0  9992
2 43016  97.5510 170.9255 0175893 214.5370 144.4330 15.04108544374811
SIRION PATHFINDER-2     
1 43759U 18099B   24295.11560489  .00016558  00000+0  11580-2 0  9992
2 43759  97.5122 347.8125 0010002 213.4427 146.6169 15.05320192321436
CORVUS BC4              
1 43767U 18099K   24295.88127073  .00010517  00000+0  75736-3 0  9996
2 43767  97.4969 345.3545 0008413 273.2310  86.7953 15.04344182321428
MOVE-II                 
1 43780U 18099Y   24295.41692527  .00050081  00000+0  19166-2 0  9995
2 43780  97.5034 357.9176 0004606 246.2041 113.8714 15.26385393322103
SPACEBEE-7              
1 43816U 18099BL  24295.14006100  .00047068  00000+0  22772-2 0  9999
2 43816  97.5323 357.7256 0008546 204.8176 155.2648 15.18397358321477
SPACEBEE-6              
1 43818U 18099BN  24295.18263534  .00114708  00000+0  25674-2 0  9991
2 43818  97.5223   6.1293 0006963 204.3238 155.7681 15.43008021322184
SHIELDS 1               
1 43850U 18104B   24295.21532708  .00031648  00000+0  68803-3 0  9993
2 43850  85.0246 197.2275 0007911 338.8592  21.2333 15.44148898325563
SONATE                  
1 44400U 19038Q   24295.46952512  .00049115  00000+0  10728-2 0  9998
2 44400  97.7157 296.0336 0014511  27.9560 332.2464 15.43929706293497
LUCKY-7                 
1 44406U 19038W   24295.09394487  .00219321  00000+0  20103-2 0  9990
2 44406  97.6970 302.4424 0007660  22.9974 337.1627 15.67041467293902
DUCHIFAT-3              
1 44854U 19089C   24295.54944501  .00037219  00000+0  14993-2 0  9995
2 44854  36.9546 358.1066 0008305  97.0527 263.1167 15.23937523267501
M2 PATHFINDER           
1 45727U 20037E   24295.44062489  .00007132  00000+0  59364-3 0  9998
2 45727  97.7817 111.4098 0012600  67.6634 292.5923 14.98917191234844
NETSAT-4                
1 46504U 20068U   24295.83665054  .00026998  00000+0  12585-2 0  9990
2 46504  97.8211 256.8648 0006381 295.5087  64.5487 15.19837113223372
NETSAT-3                
1 46505U 20068V   24294.94848593  .00031148  00000+0  14778-2 0  9992
2 46505  97.8187 255.2938 0006269 314.5847  45.4874 15.19195256223228
NETSAT-1                
1 46506U 20068W   24295.36316809  .00015062  00000+0  77216-3 0  9994
2 46506  97.8215 254.8325 0006021 327.5575  32.5286 15.16651950223223
NETSAT-2                
1 46507U 20068X   24295.85681483  .00022024  00000+0  10300-2 0  9998
2 46507  97.8191 256.4823 0005209 336.7954  23.3044 15.19775095223329
WILDTRACKCUBE-SIMBA     
1 47941U 21022K   24295.87857850  .00038579  00000+0  14027-2 0  9999
2 47941  97.4416 191.8957 0016217  62.8448 297.4442 15.28030883197767
GRBALPHA                
1 47959U 21022AD  24295.90485948  .00063976  00000+0  18042-2 0  9997
2 47959  97.4412 194.8793 0014619  55.5954 304.6670 15.36073497196780
BEESAT-8                
1 48085U 21022AP  24294.69756378  .00190229  00000+0  36331-2 0  9994
2 48085  97.4666 199.0747 0012420  51.5373 308.6989 15.47336566197179
LEDSAT                  
1 49069U 21073D   24295.17063800  .00036456  00000+0  11400-2 0  9999
2 49069  97.4232   5.9823 0016477 194.5126 165.5645 15.32923081175691
ROBUSTA-1F (MTCUBE 2)   
1 53109U 22080E   24295.00420373 -.00000003  00000+0  00000+0 0  9993
2 53109  70.1180 148.3807 0008281  61.5475 298.6018  6.42584102 53245
SITRO-AIS 5 (KATYS)     
1 57176U 23091L   24295.91874921  .00017909  00000+0  10333-2 0  9991
2 57176  97.5956 347.2029 0017456  51.8187 308.4613 15.12280614 72621
SITRO-AIS 6 (CHIRKIN)   
1 57192U 23091AC  24295.89986090  .00019473  00000+0  11222-2 0  9993
2 57192  97.5957 347.2148 0017246  51.3781 308.8991 15.12308240 72623
SITRO-AIS 8 (ANOKHIN)   
1 57193U 23091AD  24295.89738261  .00021078  00000+0  11939-2 0  9998
2 57193  97.5955 347.3608 0016901  52.3264 307.9497 15.12916845 72636
SITRO-AIS 7 (FARTUSHNIY)
1 57194U 23091AE  24295.90968426  .00018883  00000+0  10907-2 0  9993
2 57194  97.5952 347.1932 0017120  52.1997 308.0780 15.12233637 72624
SITRO-AIS 10 (BURDAEV)  
1 57199U 23091AK  24295.90196892  .00023124  00000+0  12332-2 0  9996
2 57199  97.5969 348.6724 0012038  41.6719 318.5428 15.15108135 72712
SITRO-AIS 9 (SHCHUKIN)  
1 57201U 23091AM  24295.90249940  .00022900  00000+0  12228-2 0  9998
2 57201  97.5965 348.6406 0011987  41.7311 318.4833 15.15066186 72718
SITRO-AIS 12 (SMIRENNIY)
1 57204U 23091AQ  24295.91475278  .00022138  00000+0  11758-2 0  9997
2 57204  97.5971 348.8358 0011755  35.9573 324.2447 15.15266233 72726
SITRO-AIS 11 (SHEFFER)  
1 57208U 23091AU  24295.89163592  .00021550  00000+0  11407-2 0  9999
2 57208  97.5973 348.8523 0011700  36.6522 323.5508 15.15392582 72725
ROBUSTA-1E (ENSO)       
1 58470U 23185J   24295.91291566  .00048988  00000+0  16222-2 0  9995
2 58470  97.4101   1.7940 0010999 185.2946 174.8180 15.31088413 49479
